<?xml version="1.0" encoding="UTF-8"?>
<ndm xmlns:xsi="http://www.w3.org/2001/XMLSchema-instance" xsi:noNamespaceSchemaLocation="https://sanaregistry.org/r/ndmxml_unqualified/ndmxml-2.0.0-master-2.0.xsd">
<omm id="CCSDS_OMM_VERS" version="2.0">
<header><CREATION_DATE/><ORIGINATOR/></header><body><segment><metadata><OBJECT_NAME>ONEWEB-0012</OBJECT_NAME><OBJECT_ID>2019-010A</OBJECT_ID><CENTER_NAME>EARTH</CENTER_NAME><REF_FRAME>TEME</REF_FRAME><TIME_SYSTEM>UTC</TIME_SYSTEM><MEAN_ELEMENT_THEORY>SGP4</MEAN_ELEMENT_THEORY></metadata><data><meanElements><EPOCH>2025-10-16T21:51:43.174368</EPOCH><MEAN_MOTION>13.16594172</MEAN_MOTION><ECCENTRICITY>.0001479</ECCENTRICITY><INCLINATION>87.8967</INCLINATION><RA_OF_ASC_NODE>277.2631</RA_OF_ASC_NODE><ARG_OF_PERICENTER>81.7509</ARG_OF_PERICENTER><MEAN_ANOMALY>278.3790</MEAN_ANOMALY></meanElements><tleParameters><EPHEMERIS_TYPE>0</EPHEMERIS_TYPE><CLASSIFICATION_TYPE>U</CLASSIFICATION_TYPE><NORAD_CAT_ID>44057</NORAD_CAT_ID><ELEMENT_SET_NO>999</ELEMENT_SET_NO><REV_AT_EPOCH>31955</REV_AT_EPOCH><BSTAR>.97091456E-4</BSTAR><MEAN_MOTION_DOT>.5E-6</MEAN_MOTION_DOT><MEAN_MOTION_DDOT>0</MEAN_MOTION_DDOT></tleParameters></data></segment></body></omm>
<omm id="CCSDS_OMM_VERS" version="2.0">
<header><CREATION_DATE/><ORIGINATOR/></header><body><segment><metadata><OBJECT_NAME>ONEWEB-0010</OBJECT_NAME><OBJECT_ID>2019-010B</OBJECT_ID><CENTER_NAME>EARTH</CENTER_NAME><REF_FRAME>TEME</REF_FRAME><TIME_SYSTEM>UTC</TIME_SYSTEM><MEAN_ELEMENT_THEORY>SGP4</MEAN_ELEMENT_THEORY></metadata><data><meanElements><EPOCH>2025-10-16T18:49:19.593120</EPOCH><MEAN_MOTION>13.16593686</MEAN_MOTION><ECCENTRICITY>.00020332</ECCENTRICITY><INCLINATION>87.8974</INCLINATION><RA_OF_ASC_NODE>277.2728</RA_OF_ASC_NODE><ARG_OF_PERICENTER>99.6981</ARG_OF_PERICENTER><MEAN_ANOMALY>260.4380</MEAN_ANOMALY></meanElements><tleParameters><EPHEMERIS_TYPE>0</EPHEMERIS_TYPE><CLASSIFICATION_TYPE>U</CLASSIFICATION_TYPE><NORAD_CAT_ID>44058</NORAD_CAT_ID><ELEMENT_SET_NO>999</ELEMENT_SET_NO><REV_AT_EPOCH>31958</REV_AT_EPOCH><BSTAR>.19693858E-3</BSTAR><MEAN_MOTION_DOT>.88E-6</MEAN_MOTION_DOT><MEAN_MOTION_DDOT>0</MEAN_MOTION_DDOT></tleParameters></data></segment></body></omm>
<omm id="CCSDS_OMM_VERS" version="2.0">
<header><CREATION_DATE/><ORIGINATOR/></header><body><segment><metadata><OBJECT_NAME>ONEWEB-0008</OBJECT_NAME><OBJECT_ID>2019-010C</OBJECT_ID><CENTER_NAME>EARTH</CENTER_NAME><REF_FRAME>TEME</REF_FRAME><TIME_SYSTEM>UTC</TIME_SYSTEM><MEAN_ELEMENT_THEORY>SGP4</MEAN_ELEMENT_THEORY></metadata><data><meanElements><EPOCH>2025-10-16T12:08:02.981184</EPOCH><MEAN_MOTION>13.16595470</MEAN_MOTION><ECCENTRICITY>.00019705</ECCENTRICITY><INCLINATION>87.8973</INCLINATION><RA_OF_ASC_NODE>277.3254</RA_OF_ASC_NODE><ARG_OF_PERICENTER>83.3221</ARG_OF_PERICENTER><MEAN_ANOMALY>276.8135</MEAN_ANOMALY></meanElements><tleParameters><EPHEMERIS_TYPE>0</EPHEMERIS_TYPE><CLASSIFICATION_TYPE>U</CLASSIFICATION_TYPE><NORAD_CAT_ID>44059</NORAD_CAT_ID><ELEMENT_SET_NO>999</ELEMENT_SET_NO><REV_AT_EPOCH>31966</REV_AT_EPOCH><BSTAR>.29004902E-3</BSTAR><MEAN_MOTION_DOT>.124E-5</MEAN_MOTION_DOT><MEAN_MOTION_DDOT>0</MEAN_MOTION_DDOT></tleParameters></data></segment></body></omm>
<omm id="CCSDS_OMM_VERS" version="2.0">
<header><CREATION_DATE/><ORIGINATOR/></header><body><segment><metadata><OBJECT_NAME>ONEWEB-0007</OBJECT_NAME><OBJECT_ID>2019-010D</OBJECT_ID><CENTER_NAME>EARTH</CENTER_NAME><REF_FRAME>TEME</REF_FRAME><TIME_SYSTEM>UTC</TIME_SYSTEM><MEAN_ELEMENT_THEORY>SGP4</MEAN_ELEMENT_THEORY></metadata><data><meanElements><EPOCH>2025-10-16T11:58:55.843680</EPOCH><MEAN_MOTION>13.15548063</MEAN_MOTION><ECCENTRICITY>.00017167</ECCENTRICITY><INCLINATION>87.8973</INCLINATION><RA_OF_ASC_NODE>307.8622</RA_OF_ASC_NODE><ARG_OF_PERICENTER>102.6970</ARG_OF_PERICENTER><MEAN_ANOMALY>257.4352</MEAN_ANOMALY></meanElements><tleParameters><EPHEMERIS_TYPE>0</EPHEMERIS_TYPE><CLASSIFICATION_TYPE>U</CLASSIFICATION_TYPE><NORAD_CAT_ID>44060</NORAD_CAT_ID><ELEMENT_SET_NO>999</ELEMENT_SET_NO><REV_AT_EPOCH>31933</REV_AT_EPOCH><BSTAR>.35420171E-3</BSTAR><MEAN_MOTION_DOT>.146E-5</MEAN_MOTION_DOT><MEAN_MOTION_DDOT>0</MEAN_MOTION_DDOT></tleParameters></data></segment></body></omm>
<omm id="CCSDS_OMM_VERS" version="2.0">
<header><CREATION_DATE/><ORIGINATOR/></header><body><segment><metadata><OBJECT_NAME>ONEWEB-0006</OBJECT_NAME><OBJECT_ID>2019-010E</OBJECT_ID><CENTER_NAME>EARTH</CENTER_NAME><REF_FRAME>TEME</REF_FRAME><TIME_SYSTEM>UTC</TIME_SYSTEM><MEAN_ELEMENT_THEORY>SGP4</MEAN_ELEMENT_THEORY></metadata><data><meanElements><EPOCH>2025-10-16T19:22:42.948192</EPOCH><MEAN_MOTION>13.15547369</MEAN_MOTION><ECCENTRICITY>.00018686</ECCENTRICITY><INCLINATION>87.8978</INCLINATION><RA_OF_ASC_NODE>307.7429</RA_OF_ASC_NODE><ARG_OF_PERICENTER>101.9509</ARG_OF_PERICENTER><MEAN_ANOMALY>258.1831</MEAN_ANOMALY></meanElements><tleParameters><EPHEMERIS_TYPE>0</EPHEMERIS_TYPE><CLASSIFICATION_TYPE>U</CLASSIFICATION_TYPE><NORAD_CAT_ID>44061</NORAD_CAT_ID><ELEMENT_SET_NO>999</ELEMENT_SET_NO><REV_AT_EPOCH>31942</REV_AT_EPOCH><BSTAR>.2311496E-3</BSTAR><MEAN_MOTION_DOT>.1E-5</MEAN_MOTION_DOT><MEAN_MOTION_DDOT>0</MEAN_MOTION_DDOT></tleParameters></data></segment></body></omm>
<omm id="CCSDS_OMM_VERS" version="2.0">
<header><CREATION_DATE/><ORIGINATOR/></header><body><segment><metadata><OBJECT_NAME>ONEWEB-0011</OBJECT_NAME><OBJECT_ID>2019-010F</OBJECT_ID><CENTER_NAME>EARTH</CENTER_NAME><REF_FRAME>TEME</REF_FRAME><TIME_SYSTEM>UTC</TIME_SYSTEM><MEAN_ELEMENT_THEORY>SGP4</MEAN_ELEMENT_THEORY></metadata><data><meanElements><EPOCH>2025-10-16T22:16:07.084128</EPOCH><MEAN_MOTION>13.15548349</MEAN_MOTION><ECCENTRICITY>.00020685</ECCENTRICITY><INCLINATION>87.8974</INCLINATION><RA_OF_ASC_NODE>307.7308</RA_OF_ASC_NODE><ARG_OF_PERICENTER>93.5797</ARG_OF_PERICENTER><MEAN_ANOMALY>266.5570</MEAN_ANOMALY></meanElements><tleParameters><EPHEMERIS_TYPE>0</EPHEMERIS_TYPE><CLASSIFICATION_TYPE>U</CLASSIFICATION_TYPE><NORAD_CAT_ID>44062</NORAD_CAT_ID><ELEMENT_SET_NO>999</ELEMENT_SET_NO><REV_AT_EPOCH>31943</REV_AT_EPOCH><BSTAR>-.27868007E-3</BSTAR><MEAN_MOTION_DOT>-.92E-6</MEAN_MOTION_DOT><MEAN_MOTION_DDOT>0</MEAN_MOTION_DDOT></tleParameters></data></segment></body></omm>
<omm id="CCSDS_OMM_VERS" version="2.0">
<header><CREATION_DATE/><ORIGINATOR/></header><body><segment><metadata><OBJECT_NAME>ONEWEB-0013</OBJECT_NAME><OBJECT_ID>2020-008A</OBJECT_ID><CENTER_NAME>EARTH</CENTER_NAME><REF_FRAME>TEME</REF_FRAME><TIME_SYSTEM>UTC</TIME_SYSTEM><MEAN_ELEMENT_THEORY>SGP4</MEAN_ELEMENT_THEORY></metadata><data><meanElements><EPOCH>2025-10-16T21:01:22.123200</EPOCH><MEAN_MOTION>13.09430592</MEAN_MOTION><ECCENTRICITY>.00007537</ECCENTRICITY><INCLINATION>87.8449</INCLINATION><RA_OF_ASC_NODE>101.9634</RA_OF_ASC_NODE><ARG_OF_PERICENTER>61.9470</ARG_OF_PERICENTER><MEAN_ANOMALY>298.1733</MEAN_ANOMALY></meanElements><tleParameters><EPHEMERIS_TYPE>0</EPHEMERIS_TYPE><CLASSIFICATION_TYPE>U</CLASSIFICATION_TYPE><NORAD_CAT_ID>45131</NORAD_CAT_ID><ELEMENT_SET_NO>999</ELEMENT_SET_NO><REV_AT_EPOCH>27422</REV_AT_EPOCH><BSTAR>-.80617244E-4</BSTAR><MEAN_MOTION_DOT>-.15E-6</MEAN_MOTION_DOT><MEAN_MOTION_DDOT>0</MEAN_MOTION_DDOT></tleParameters></data></segment></body></omm>
<omm id="CCSDS_OMM_VERS" version="2.0">
<header><CREATION_DATE/><ORIGINATOR/></header><body><segment><metadata><OBJECT_NAME>ONEWEB-0017</OBJECT_NAME><OBJECT_ID>2020-008B</OBJECT_ID><CENTER_NAME>EARTH</CENTER_NAME><REF_FRAME>TEME</REF_FRAME><TIME_SYSTEM>UTC</TIME_SYSTEM><MEAN_ELEMENT_THEORY>SGP4</MEAN_ELEMENT_THEORY></metadata><data><meanElements><EPOCH>2025-10-16T11:53:45.987360</EPOCH><MEAN_MOTION>13.10374066</MEAN_MOTION><ECCENTRICITY>.00017872</ECCENTRICITY><INCLINATION>87.8752</INCLINATION><RA_OF_ASC_NODE>84.8577</RA_OF_ASC_NODE><ARG_OF_PERICENTER>98.8876</ARG_OF_PERICENTER><MEAN_ANOMALY>261.2454</MEAN_ANOMALY></meanElements><tleParameters><EPHEMERIS_TYPE>0</EPHEMERIS_TYPE><CLASSIFICATION_TYPE>U</CLASSIFICATION_TYPE><NORAD_CAT_ID>45132</NORAD_CAT_ID><ELEMENT_SET_NO>999</ELEMENT_SET_NO><REV_AT_EPOCH>27603</REV_AT_EPOCH><BSTAR>.15528892E-2</BSTAR><MEAN_MOTION_DOT>.555E-5</MEAN_MOTION_DOT><MEAN_MOTION_DDOT>0</MEAN_MOTION_DDOT></tleParameters></data></segment></body></omm>

</ndm>
