ONEWEB-0012             
1 44057U 19010A   25289.91091637  .00000050  00000+0  97091-4 0  9997
2 44057  87.8967 277.2631 0001479  81.7509 278.3790 13.16594172319554
ONEWEB-0010             
1 44058U 19010B   25289.78425455  .00000088  00000+0  19694-3 0  9995
2 44058  87.8974 277.2728 0002033  99.6981 260.4380 13.16593686319588
ONEWEB-0008             
1 44059U 19010C   25289.50559006  .00000124  00000+0  29005-3 0  9994
2 44059  87.8973 277.3254 0001970  83.3221 276.8135 13.16595470319660
ONEWEB-0007             
1 44060U 19010D   25289.49925745  .00000146  00000+0  35420-3 0  9993
2 44060  87.8973 307.8622 0001716 102.6970 257.4352 13.15548063319339
ONEWEB-0006             
1 44061U 19010E   25289.80744153  .00000100  00000+0  23115-3 0  9999
2 44061  87.8978 307.7429 0001868 101.9509 258.1831 13.15547369319425
ONEWEB-0011             
1 44062U 19010F   25289.92785977 -.00000092  00000+0 -27868-3 0  9993
2 44062  87.8974 307.7308 0002068  93.5797 266.5570 13.15548349319439
ONEWEB-0013             
1 45131U 20008A   25289.87595050 -.00000015  00000+0 -80617-4 0  9992
2 45131  87.8449 101.9634 0000753  61.9470 298.1733 13.09430592274228
ONEWEB-0017             
1 45132U 20008B   25289.49567115  .00000555  00000+0  15529-2 0  9997
2 45132  87.8752  84.8577 0001787  98.8876 261.2454 13.10374066276035
